{"type":"FeatureCollection","features":[{"type":"Feature","properties":{"ward_id":"10237","ward":"Chương Dương","unit_type":"Xã","area_km2_source":28.89,"population_source":59973,"density_source":2075.91,"center_lon_source":105.89936,"center_lat_source":20.8412,"admin_geography_version":"Hanoi wards/communes effective 2025-07-01"},"geometry":{"type":"MultiPolygon","coordinates":[[[[105.93265,20.86996],[105.92502,20.87812],[105.92108,20.87073],[105.91922,20.86951],[105.91852,20.86988],[105.91711,20.86782],[105.91643,20.8679],[105.91568,20.86562],[105.91191,20.86574],[105.91118,20.86639],[105.91148,20.86713],[105.90521,20.86854],[105.9052,20.8692],[105.90217,20.86831],[105.90079,20.86067],[105.89813,20.86034],[105.89533,20.85769],[105.89475,20.85163],[105.8912,20.84988],[105.88848,20.85191],[105.88828,20.85099],[105.89133,20.84889],[105.88965,20.84778],[105.89059,20.84239],[105.88846,20.84187],[105.88842,20.84074],[105.88455,20.8403],[105.88487,20.83672],[105.88361,20.83657],[105.88406,20.83384],[105.8769,20.8313],[105.86778,20.83021],[105.86907,20.82001],[105.87261,20.82006],[105.87355,20.81166],[105.87292,20.81164],[105.87304,20.80958],[105.87227,20.80946],[105.87317,20.80239],[105.873,20.79633],[105.88014,20.79458],[105.88321,20.79576],[105.88393,20.79715],[105.88632,20.79772],[105.88438,20.80235],[105.91403,20.8102],[105.91154,20.81783],[105.911,20.82285],[105.91137,20.82979],[105.91292,20.83684],[105.9162,20.84158],[105.91881,20.84384],[105.93033,20.84949],[105.9349,20.85438],[105.93606,20.85915],[105.93582,20.86506],[105.93265,20.86996]]]]}}]}
