{"type":"FeatureCollection","features":[{"type":"Feature","properties":{"ward_id":"00622","ward":"Xuân Phương","unit_type":"Phường","area_km2_source":10.81,"population_source":104947,"density_source":9708.33,"center_lon_source":105.74091,"center_lat_source":21.03036,"admin_geography_version":"Hanoi wards/communes effective 2025-07-01"},"geometry":{"type":"MultiPolygon","coordinates":[[[[105.7453,21.04773],[105.73703,21.05121],[105.72959,21.05647],[105.72651,21.0526],[105.72861,21.05059],[105.72792,21.04833],[105.73252,21.0457],[105.73205,21.04469],[105.73244,21.04364],[105.73358,21.04329],[105.73404,21.04059],[105.73357,21.03827],[105.73487,21.03685],[105.73842,21.03657],[105.7383,21.03535],[105.73892,21.03512],[105.7386,21.03164],[105.73734,21.03136],[105.73809,21.02753],[105.73489,21.02636],[105.73466,21.025],[105.73717,21.02345],[105.73575,21.02158],[105.73442,21.02254],[105.72973,21.01795],[105.73125,21.01634],[105.73139,21.0169],[105.73253,21.01671],[105.73415,21.01562],[105.73238,21.0122],[105.73254,21.01056],[105.74747,21.0095],[105.76278,21.00649],[105.76319,21.00853],[105.76235,21.00998],[105.75796,21.01348],[105.75379,21.01871],[105.75523,21.02233],[105.7543,21.02556],[105.75856,21.03074],[105.75845,21.03812],[105.76075,21.04003],[105.76147,21.0417],[105.7453,21.04773]]]]}}]}
